H1 CPF  1  DGF 2022 08 17 11  7291 larets     NONE      
H2   304206 5557    27944 2022 08 17 00 00 00 2022 08 24 00 00 00    30 1 1  0 0 0
H5  0.0650
H9
10 0 59814  79200.000000  0       -556520.245       1109664.738      -6967257.787
10 0 59814  79230.000000  0       -447005.104       1306635.641      -6940812.177
10 0 59814  79260.000000  0       -336183.929       1501815.033      -6907358.587
10 0 59814  79290.000000  0       -224176.029       1695001.658      -6866929.940
10 0 59814  79320.000000  0       -111102.801       1885996.709      -6819566.103
10 0 59814  79350.000000  0          2912.390       2074604.024      -6765313.848
10 0 59814  79380.000000  0        117744.349       2260630.287      -6704226.815
10 0 59814  79410.000000  0        233266.179       2443885.223      -6636365.469
10 0 59814  79440.000000  0        349349.421       2624181.790      -6561797.046
10 0 59814  79470.000000  0        465864.194       2801336.369      -6480595.498
10 0 59814  79500.000000  0        582679.329       2975168.951      -6392841.421
10 0 59814  79530.000000  0        699662.520       3145503.321      -6298621.987
10 0 59814  79560.000000  0        816680.462       3312167.229      -6198030.865
10 0 59814  79590.000000  0        933598.998       3474992.567      -6091168.141
10 0 59814  79620.000000  0       1050283.273       3633815.542      -5978140.231
10 0 59814  79650.000000  0       1166597.881       3788476.838      -5859059.788
10 0 59814  79680.000000  0       1282407.022       3938821.786      -5734045.600
10 0 59814  79710.000000  0       1397574.655       4084700.518      -5603222.485
10 0 59814  79740.000000  0       1511964.653       4225968.124      -5466721.177
10 0 59814  79770.000000  0       1625440.967       4362484.803      -5324678.211
10 0 59814  79800.000000  0       1737867.778       4494116.005      -5177235.792
10 0 59814  79830.000000  0       1849109.663       4620732.574      -5024541.670
10 0 59814  79860.000000  0       1959031.753       4742210.888      -4866748.995
10 0 59814  79890.000000  0       2067499.895       4858432.979      -4704016.174
10 0 59814  79920.000000  0       2174380.813       4969286.659      -4536506.720
10 0 59814  79950.000000  0       2279542.269       5074665.634      -4364389.102
10 0 59814  79980.000000  0       2382853.224       5174469.618      -4187836.576
10 0 59814  80010.000000  0       2484184.001       5268604.435      -4007027.031
10 0 59814  80040.000000  0       2583406.449       5356982.123      -3822142.810
10 0 59814  80070.000000  0       2680394.098       5439521.023      -3633370.536
10 0 59814  80100.000000  0       2775022.325       5516145.867      -3440900.926
10 0 59814  80130.000000  0       2867168.512       5586787.857      -3244928.607
10 0 59814  80160.000000  0       2956712.204       5651384.738      -3045651.922
10 0 59814  80190.000000  0       3043535.266       5709880.858      -2843272.729
10 0 59814  80220.000000  0       3127522.038       5762227.229      -2637996.201
10 0 59814  80250.000000  0       3208559.487       5808381.574      -2430030.620
10 0 59814  80280.000000  0       3286537.359       5848308.372      -2219587.166
10 0 59814  80310.000000  0       3361348.324       5881978.891      -2006879.703
10 0 59814  80340.000000  0       3432888.124       5909371.217      -1792124.558
10 0 59814  80370.000000  0       3501055.715       5930470.272      -1575540.297
10 0 59814  80400.000000  0       3565753.405       5945267.823      -1357347.503
10 0 59814  80430.000000  0       3626886.988       5953762.489      -1137768.543
10 0 59814  80460.000000  0       3684365.878       5955959.729       -917027.341
10 0 59814  80490.000000  0       3738103.237       5951871.833       -695349.143
10 0 59814  80520.000000  0       3788016.095       5941517.902       -472960.281
10 0 59814  80550.000000  0       3834025.477       5924923.816       -250087.937
10 0 59814  80580.000000  0       3876056.512       5902122.199        -26959.903
10 0 59814  80610.000000  0       3914038.547       5873152.368        196195.659
10 0 59814  80640.000000  0       3947905.252       5838060.284        419150.456
10 0 59814  80670.000000  0       3977594.723       5796898.488        641676.306
10 0 59814  80700.000000  0       4003049.575       5749726.030        863545.378
10 0 59814  80730.000000  0       4024217.038       5696608.394       1084530.431
10 0 59814  80760.000000  0       4041049.037       5637617.409       1304405.059
10 0 59814  80790.000000  0       4053502.276       5572831.163       1522943.921
10 0 59814  80820.000000  0       4061538.306       5502333.905       1739922.985
10 0 59814  80850.000000  0       4065123.600       5426215.944       1955119.766
10 0 59814  80880.000000  0       4064229.619       5344573.539       2168313.565
10 0 59814  80910.000000  0       4058832.867       5257508.775       2379285.718
10 0 59814  80940.000000  0       4048914.938       5165129.428       2587819.821
10 0 59814  80970.000000  0       4034462.557       5067548.824       2793701.965
10 0 59814  81000.000000  0       4015467.618       4964885.696       2996720.954
10 0 59814  81030.000000  0       3991927.210       4857264.044       3196668.527
10 0 59814  81060.000000  0       3963843.644       4744812.978       3393339.572
10 0 59814  81090.000000  0       3931224.474       4627666.564       3586532.348
10 0 59814  81120.000000  0       3894082.514       4505963.657       3776048.693
10 0 59814  81150.000000  0       3852435.841       4379847.738       3961694.234
10 0 59814  81180.000000  0       3806307.805       4249466.733       4143278.592
10 0 59814  81210.000000  0       3755727.012       4114972.842       4320615.584
10 0 59814  81240.000000  0       3700727.315       3976522.355       4493523.424
10 0 59814  81270.000000  0       3641347.782       3834275.464       4661824.908
10 0 59814  81300.000000  0       3577632.672       3688396.072       4825347.601
10 0 59814  81330.000000  0       3509631.398       3539051.597       4983924.018
10 0 59814  81360.000000  0       3437398.488       3386412.764       5137391.788
10 0 59814  81390.000000  0       3360993.540       3230653.409       5285593.820
10 0 59814  81420.000000  0       3280481.170       3071950.268       5428378.455
10 0 59814  81450.000000  0       3195930.958       2910482.781       5565599.622
10 0 59814  81480.000000  0       3107417.389       2746432.883       5697116.982
10 0 59814  81510.000000  0       3015019.783       2579984.793       5822796.077
10 0 59814  81540.000000  0       2918822.225       2411324.804       5942508.462
10 0 59814  81570.000000  0       2818913.481       2240641.066       6056131.837
10 0 59814  81600.000000  0       2715386.914       2068123.371       6163550.172
10 0 59814  81630.000000  0       2608340.390       1893962.936       6264653.816
10 0 59814  81660.000000  0       2497876.185       1718352.187       6359339.610
10 0 59814  81690.000000  0       2384100.880       1541484.545       6447510.979
10 0 59814  81720.000000  0       2267125.258       1363554.203       6529078.037
10 0 59814  81750.000000  0       2147064.189       1184755.920       6603957.665
10 0 59814  81780.000000  0       2024036.518       1005284.798       6672073.596
10 0 59814  81810.000000  0       1898164.938        825336.072       6733356.486
10 0 59814  81840.000000  0       1769575.870        645104.900       6787743.984
10 0 59814  81870.000000  0       1638399.331        464786.145       6835180.792
10 0 59814  81900.000000  0       1504768.804        284574.171       6875618.719
10 0 59814  81930.000000  0       1368821.094        104662.621       6909016.737
10 0 59814  81960.000000  0       1230696.194        -74755.785       6935341.013
10 0 59814  81990.000000  0       1090537.128       -253489.471       6954564.948
10 0 59814  82020.000000  0        948489.806       -431348.206       6966669.194
10 0 59814  82050.000000  0        804702.870       -608143.309       6971641.671
10 0 59814  82080.000000  0        659327.538       -783687.850       6969477.582
10 0 59814  82110.000000  0        512517.437       -957796.845       6960179.414
10 0 59814  82140.000000  0        364428.446      -1130287.461       6943756.938
10 0 59814  82170.000000  0        215218.519      -1300979.205       6920227.195
10 0 59814  82200.000000  0         65047.525      -1469694.115       6889614.475
10 0 59814  82230.000000  0        -85922.932      -1636256.948       6851950.296
10 0 59814  82260.000000  0       -237529.687      -1800495.367       6807273.372
10 0 59814  82290.000000  0       -389608.192      -1962240.116       6755629.568
10 0 59814  82320.000000  0       -541992.695      -2121325.202       6697071.853
10 0 59814  82350.000000  0       -694516.421      -2277588.061       6631660.248
10 0 59814  82380.000000  0       -847011.756      -2430869.729       6559461.758
10 0 59814  82410.000000  0       -999310.421      -2581015.001       6480550.312
10 0 59814  82440.000000  0      -1151243.667      -2727872.590       6395006.689
10 0 59814  82470.000000  0      -1302642.451      -2871295.283       6302918.437
10 0 59814  82500.000000  0      -1453337.636      -3011140.089       6204379.797
10 0 59814  82530.000000  0      -1603160.175      -3147268.393       6099491.604
10 0 59814  82560.000000  0      -1751941.304      -3279546.087       5988361.187
10 0 59814  82590.000000  0      -1899512.737      -3407843.715       5871102.268
10 0 59814  82620.000000  0      -2045706.855      -3532036.598       5747834.846
10 0 59814  82650.000000  0      -2190356.903      -3652004.963       5618685.081
10 0 59814  82680.000000  0      -2333297.187      -3767634.066       5483785.166
10 0 59814  82710.000000  0      -2474363.263      -3878814.301       5343273.193
10 0 59814  82740.000000  0      -2613392.137      -3985441.314       5197293.015
10 0 59814  82770.000000  0      -2750222.453      -4087416.102       5045994.093
99
